<?xml version="1.0" encoding="UTF-8"?>
<!-- Created with BasicAirData GPS Logger for Android - ver. 3.3.0 -->
<!-- Track 3 = 1110 TrackPoints + 0 Placemarks -->
<kml xmlns="http://www.opengis.net/kml/2.2">
 <Document>
  <name>GPS Logger 20260927-105412</name>
  <description><![CDATA[Trasa2
1110 Trackpoints + 0 Placemarks]]></description>
  <Style id="TrackStyle">
   <LineStyle>
    <color>ff0000ff</color>
    <width>3</width>
   </LineStyle>
   <PolyStyle>
    <color>7f0000ff</color>
   </PolyStyle>
   <BalloonStyle>
    <text><![CDATA[<p style="color:red;font-weight:bold">$[name]</p><p style="font-size:11px">$[description]</p><p style="font-size:7px">Track Stats based on: Total time | Time in Movement</p>]]></text>
   </BalloonStyle>
  </Style>

  <Placemark id="20260927-105412">
   <name>Track 20260927-105412</name>
   <description><![CDATA[<b>Trasa2</b><br><br>Distance = 20,2 km<br>Duration = 20:10 | 20:10<br>Altitude Gap = -27 m<br>Max Speed = 101 km/h<br>Avg Speed = 60,3 | 60,3 km/h<br>Direction = NE <br><br><i>1110 Trackpoints</i>]]></description>
   <styleUrl>#TrackStyle</styleUrl>
   <LineString>
    <extrude>0</extrude>
    <tessellate>0</tessellate>
    <altitudeMode>clampToGround</altitudeMode>
    <coordinates>
     13.95592295,50.68466148,252.263
     13.95569571,50.68486881,252.877
     13.95547167,50.68507196,251.255
     13.95525344,50.68527875,252.248
     13.95503535,50.68548219,252.259
     13.95482201,50.68568601,251.949
     13.95461577,50.68588858,252.292
     13.95441991,50.68609449,252.260
     13.95422727,50.68630042,252.376
     13.95405221,50.68650778,252.759
     13.95388149,50.68671368,253.673
     13.95372519,50.68692628,254.157
     13.95357975,50.68713396,254.178
     13.95344951,50.68734501,254.511
     13.95332713,50.68755416,254.895
     13.95321781,50.68776277,255.147
     13.95311587,50.68796730,255.194
     13.95302630,50.68817649,255.266
     13.95294246,50.68838800,255.453
     13.95286578,50.68859893,255.835
     13.95280115,50.68881622,255.414
     13.95274551,50.68903317,255.818
     13.95269528,50.68924962,256.345
     13.95266245,50.68946501,256.753
     13.95263886,50.68967873,256.829
     13.95262100,50.68988990,256.849
     13.95261655,50.69010299,256.919
     13.95261247,50.69031843,257.441
     13.95262375,50.69053796,257.903
     13.95263896,50.69075578,258.231
     13.95266631,50.69097739,259.137
     13.95271126,50.69119736,259.985
     13.95275720,50.69141552,260.101
     13.95281146,50.69163206,260.012
     13.95287762,50.69184185,260.859
     13.95295332,50.69205017,261.111
     13.95303582,50.69226655,261.863
     13.95312553,50.69247639,262.212
     13.95322210,50.69268833,262.153
     13.95333504,50.69290218,262.550
     13.95345662,50.69311556,263.385
     13.95358612,50.69332279,263.689
     13.95372960,50.69353188,264.175
     13.95387811,50.69373608,265.025
     13.95402926,50.69393684,265.271
     13.95418723,50.69413767,265.966
     13.95434255,50.69433503,266.686
     13.95450038,50.69452812,267.219
     13.95465676,50.69472231,267.682
     13.95481128,50.69491525,268.186
     13.95495913,50.69510956,268.528
     13.95510637,50.69530234,268.739
     13.95525596,50.69550184,269.084
     13.95540697,50.69570549,269.468
     13.95554803,50.69591395,269.999
     13.95568051,50.69612812,270.514
     13.95580542,50.69634748,270.882
     13.95592177,50.69657084,271.512
     13.95603520,50.69678939,271.643
     13.95613083,50.69701980,272.141
     13.95622157,50.69725099,272.213
     13.95629230,50.69749190,272.654
     13.95636326,50.69773589,273.296
     13.95642507,50.69798102,274.169
     13.95647080,50.69822604,274.780
     13.95650445,50.69847031,275.185
     13.95653837,50.69871734,275.316
     13.95655216,50.69896339,275.794
     13.95655724,50.69920489,276.220
     13.95656015,50.69944699,276.786
     13.95655406,50.69968766,277.169
     13.95654659,50.69992793,277.301
     13.95653886,50.70016965,277.893
     13.95652028,50.70041483,278.458
     13.95649274,50.70066008,278.844
     13.95646993,50.70089983,279.301
     13.95644713,50.70113865,279.612
     13.95642475,50.70137856,279.973
     13.95640262,50.70160911,279.869
     13.95638875,50.70184645,280.424
     13.95636832,50.70207777,280.928
     13.95635393,50.70230988,281.422
     13.95633561,50.70254454,281.750
     13.95631803,50.70277667,282.023
     13.95630889,50.70301584,282.464
     13.95629466,50.70325586,282.756
     13.95628918,50.70349238,283.342
     13.95629349,50.70373296,283.941
     13.95630697,50.70396626,283.875
     13.95632866,50.70419572,284.305
     13.95636635,50.70442536,284.840
     13.95640961,50.70464803,285.517
     13.95644859,50.70487144,286.043
     13.95650505,50.70509314,286.734
     13.95657401,50.70531185,287.241
     13.95665279,50.70553055,287.852
     13.95674597,50.70575212,288.371
     13.95684336,50.70597278,288.988
     13.95695237,50.70618888,289.983
     13.95706444,50.70640571,290.992
     13.95718927,50.70662201,291.708
     13.95732482,50.70682922,292.532
     13.95746570,50.70703839,293.674
     13.95761301,50.70724604,294.451
     13.95777032,50.70745027,295.423
     13.95793549,50.70764826,296.448
     13.95811296,50.70784098,297.399
     13.95829296,50.70802705,298.439
     13.95848139,50.70820344,299.156
     13.95867784,50.70838117,300.034
     13.95888520,50.70855769,300.943
     13.95910184,50.70873459,301.798
     13.95933172,50.70891242,303.013
     13.95956708,50.70908053,303.627
     13.95981383,50.70924632,304.652
     13.96006233,50.70940753,305.783
     13.96032498,50.70956178,306.463
     13.96058620,50.70971419,306.865
     13.96085586,50.70986051,307.956
     13.96113741,50.71000173,308.739
     13.96142730,50.71014180,310.227
     13.96172045,50.71027918,311.036
     13.96201675,50.71041007,311.352
     13.96231787,50.71053823,311.529
     13.96262692,50.71065964,312.207
     13.96293301,50.71077735,313.185
     13.96323962,50.71088844,314.098
     13.96354920,50.71099480,314.740
     13.96386232,50.71109716,315.517
     13.96417789,50.71119694,316.101
     13.96449750,50.71129082,316.865
     13.96481687,50.71138275,317.545
     13.96513580,50.71147189,318.361
     13.96545956,50.71155592,320.554
     13.99839163,50.72137502,416.673
     13.99857706,50.72148459,417.619
     13.99876780,50.72158515,418.559
     13.99897077,50.72167063,419.624
     13.99917657,50.72174022,420.424
     13.99938701,50.72179435,421.156
     13.99960306,50.72183731,422.023
     13.99982510,50.72186911,422.923
     14.00005356,50.72188967,423.836
     14.00028668,50.72189775,424.748
     14.00052544,50.72189674,425.657
     14.00076953,50.72188230,426.456
     14.00100963,50.72185926,427.181
     14.00124171,50.72183861,427.943
     14.00147108,50.72182649,428.859
     14.00169216,50.72183197,429.567
     14.00190490,50.72185440,430.197
     14.00210359,50.72189959,431.047
     14.00228968,50.72197561,431.888
     14.00243843,50.72206899,432.794
     14.00254251,50.72217397,433.629
     14.00259544,50.72228839,433.895
     14.00261679,50.72238586,434.502
     14.00264376,50.72246721,434.959
     14.00268872,50.72255034,435.093
     14.00274015,50.72263342,435.380
     14.00279887,50.72272287,435.451
     14.00287064,50.72281244,435.639
     14.00297467,50.72289406,436.206
     14.00308764,50.72296877,436.625
     14.00323890,50.72304043,437.712
     14.00339523,50.72311868,438.356
     14.00356061,50.72320545,439.272
     14.00373172,50.72330644,440.795
     14.00390168,50.72340946,441.230
     14.00406709,50.72352157,441.813
     14.00422503,50.72363961,441.986
     14.00437990,50.72376000,442.498
     14.00453064,50.72388752,443.023
     14.00467153,50.72401910,443.551
     14.00480237,50.72415589,444.239
     14.00492419,50.72430010,444.705
     14.00503632,50.72445100,445.401
     14.00514463,50.72460286,445.983
     14.00524754,50.72476183,446.752
     14.00535747,50.72492275,447.742
     14.00547829,50.72508746,448.429
     14.00559485,50.72525802,449.626
     14.00571450,50.72543002,450.468
     14.00583831,50.72560410,451.443
     14.00596244,50.72577782,452.133
     14.00608891,50.72595374,452.867
     14.00621337,50.72613039,453.461
     14.00633595,50.72630840,454.083
     14.00646093,50.72648800,454.866
     14.00658802,50.72666797,455.719
     14.00671258,50.72684706,456.441
     14.00683530,50.72702737,457.100
     14.00695671,50.72720786,457.905
     14.00708369,50.72738669,458.622
     14.00720724,50.72756191,459.253
     14.00732984,50.72773446,459.575
     14.00745280,50.72791067,460.190
     14.00757532,50.72808750,460.502
     14.00769717,50.72826654,460.986
     14.00781741,50.72844164,461.067
     14.00794068,50.72861675,461.355
     14.00806103,50.72878849,461.732
     14.00818177,50.72895350,461.696
     14.00830100,50.72911855,461.944
     14.00841561,50.72927889,462.297
     14.00852604,50.72943459,462.366
     14.00863512,50.72959126,462.720
     14.00874516,50.72974676,462.967
     14.00885610,50.72990318,463.161
     14.00897053,50.73006517,463.391
     14.00908585,50.73022974,463.554
     14.00920259,50.73039789,463.589
     14.00931790,50.73056903,463.383
     14.00944149,50.73074107,463.579
     14.00956185,50.73091106,463.391
     14.00968523,50.73108345,463.363
     14.00980890,50.73125741,463.532
     14.00993298,50.73143282,463.687
     14.01005738,50.73160702,463.904
     14.01018381,50.73178134,463.915
     14.01030306,50.73195270,463.546
     14.01042139,50.73212410,463.497
     14.01054031,50.73229790,463.539
     14.01066190,50.73246771,463.510
     14.01078015,50.73263773,463.533
     14.01089871,50.73280822,463.508
     14.01101972,50.73297986,463.402
     14.01113905,50.73315374,463.091
     14.01125243,50.73332248,462.944
     14.01137672,50.73349488,463.546
     14.01149507,50.73366509,463.186
     14.01161411,50.73383060,462.703
     14.01173555,50.73399562,462.338
     14.01185371,50.73415777,461.691
     14.01198316,50.73432004,461.378
     14.01211404,50.73447957,460.833
     14.01224305,50.73463755,460.141
     14.01237618,50.73479943,460.039
     14.01251091,50.73496362,460.252
     14.01266106,50.73512017,459.480
     14.01279600,50.73528162,459.399
     14.01293125,50.73543949,459.491
     14.01307338,50.73560178,459.421
     14.01322102,50.73577329,459.453
     14.01336323,50.73594744,459.411
     14.01350493,50.73611430,459.635
     14.01365354,50.73628396,459.314
     14.01379615,50.73644834,459.270
     14.01393525,50.73661266,459.010
     14.01407526,50.73677567,458.648
     14.01421624,50.73693676,458.698
     14.01437858,50.73709637,458.174
     14.01454132,50.73725121,457.633
     14.01470468,50.73740626,457.309
     14.01486824,50.73755894,456.543
     14.01503805,50.73771171,455.709
     14.01520327,50.73786600,455.195
     14.01536978,50.73801954,454.821
     14.01553872,50.73817723,454.491
     14.01569543,50.73833444,454.193
     14.01586149,50.73849057,454.204
     14.01602462,50.73863525,453.451
     14.01619021,50.73879253,452.545
     14.01635595,50.73893905,451.617
     14.01652237,50.73909183,451.049
     14.01668041,50.73925375,450.626
     14.01684412,50.73940883,450.348
     14.01701300,50.73955948,450.040
     14.01717892,50.73971276,449.452
     14.01735220,50.73987097,449.410
     14.01752659,50.74003125,449.562
     14.01769781,50.74018676,449.135
     14.01786149,50.74034601,448.442
     14.01803478,50.74049744,447.772
     14.01819893,50.74065747,447.329
     14.01837156,50.74081355,447.410
     14.01854949,50.74097397,448.378
     14.01871538,50.74113233,448.218
     14.01888428,50.74129151,448.253
     14.01904750,50.74145073,448.104
     14.01922039,50.74160794,448.156
     14.01939426,50.74176835,447.665
     14.01956619,50.74192798,447.479
     14.01973619,50.74209041,447.316
     14.01990076,50.74224946,447.346
     14.02005809,50.74240509,447.326
     14.02021490,50.74256016,447.509
     14.02037471,50.74271044,447.256
     14.02053112,50.74285542,447.204
     14.02068584,50.74299641,447.277
     14.02084634,50.74313392,446.943
     14.02099829,50.74326303,446.410
     14.02115383,50.74338959,446.467
     14.02130830,50.74351388,446.253
     14.02147179,50.74363419,445.914
     14.02163506,50.74375265,446.045
     14.02180272,50.74386968,445.777
     14.02196889,50.74398622,445.259
     14.02214181,50.74410569,445.264
     14.02231489,50.74422526,444.837
     14.02248877,50.74435071,444.526
     14.02267129,50.74447521,443.995
     14.02285540,50.74460534,443.567
     14.02304649,50.74473625,442.950
     14.02324519,50.74486936,442.157
     14.02344635,50.74500725,441.581
     14.02365142,50.74514663,440.941
     14.02385926,50.74529064,440.133
     14.02407419,50.74543316,439.566
     14.02427894,50.74557427,438.804
     14.02448592,50.74571526,438.138
     14.02469823,50.74585890,437.498
     14.02490832,50.74600047,436.705
     14.02511980,50.74614271,435.932
     14.02532682,50.74628429,435.266
     14.02553590,50.74642315,434.230
     14.02574404,50.74656219,433.590
     14.02595788,50.74670669,433.221
     14.02616523,50.74684604,432.820
     14.02637488,50.74698541,432.079
     14.02658123,50.74712683,431.360
     14.02678845,50.74726968,430.439
     14.02699395,50.74741139,429.549
     14.02720078,50.74755224,428.820
     14.02741094,50.74769246,428.113
     14.02761898,50.74783321,427.178
     14.02782370,50.74797400,426.323
     14.02803331,50.74811586,425.467
     14.02824229,50.74825703,424.654
     14.02844930,50.74839723,423.942
     14.02865660,50.74854033,422.970
     14.02886252,50.74868239,421.985
     14.02906951,50.74882388,421.161
     14.02928015,50.74896424,420.479
     14.02948643,50.74910315,419.931
     14.02969363,50.74924156,419.065
     14.02990438,50.74938419,418.497
     14.03011619,50.74952736,418.024
     14.03032283,50.74966938,417.172
     14.03053151,50.74981175,416.475
     14.03074172,50.74995297,415.657
     14.03095346,50.75009564,415.155
     14.03116591,50.75023842,414.406
     14.03137727,50.75038084,413.547
     14.03158465,50.75052358,412.819
     14.03179099,50.75066012,411.903
     14.03199576,50.75079863,411.004
     14.03219878,50.75093308,410.376
     14.03239966,50.75106646,409.662
     14.03259417,50.75119811,408.986
     14.03277624,50.75132104,408.244
     14.03294171,50.75143572,407.576
     14.03308816,50.75154348,407.259
     14.03321587,50.75164528,406.533
     14.03332503,50.75174097,406.029
     14.03342428,50.75183984,405.800
     14.03352024,50.75194117,405.217
     14.03361136,50.75204630,404.682
     14.03370794,50.75215260,404.108
     14.03380725,50.75225840,403.543
     14.03390765,50.75236014,402.930
     14.03401137,50.75246174,402.588
     14.03410573,50.75255941,402.355
     14.03418214,50.75265901,401.761
     14.03423578,50.75276583,401.019
     14.03424901,50.75287898,400.370
     14.03423856,50.75299139,399.719
     14.03423728,50.75310745,399.121
     14.03425678,50.75321884,399.022
     14.03431468,50.75332716,399.365
     14.03440315,50.75342701,398.657
     14.03450417,50.75351905,398.327
     14.03460845,50.75360737,398.263
     14.03471802,50.75369338,397.807
     14.03483628,50.75378058,397.809
     14.03496024,50.75387072,396.880
     14.03508478,50.75396766,396.737
     14.03521226,50.75406528,396.814
     14.03532891,50.75416448,396.603
     14.03543597,50.75426895,396.010
     14.03552125,50.75437960,395.624
     14.03559387,50.75449542,395.310
     14.03566322,50.75461369,395.128
     14.03573997,50.75473160,394.617
     14.03582069,50.75484785,394.093
     14.03591125,50.75496146,393.731
     14.03602013,50.75506403,393.349
     14.03615719,50.75515211,393.389
     14.03630635,50.75522469,393.303
     14.03646719,50.75528302,393.129
     14.03663416,50.75533054,392.840
     14.03680545,50.75536623,392.340
     14.03698086,50.75540333,392.126
     14.03716129,50.75544157,391.822
     14.03733912,50.75548967,391.412
     14.03750670,50.75554802,390.579
     14.03766204,50.75561861,390.265
     14.03780841,50.75570367,389.663
     14.03793326,50.75579743,389.125
     14.03805402,50.75589124,388.051
     14.03817473,50.75598650,387.236
     14.03829859,50.75608639,386.786
     14.03842785,50.75618488,386.331
     14.03855601,50.75628319,386.092
     14.03868759,50.75637864,386.265
     14.03882484,50.75647044,386.102
     14.03896527,50.75656074,385.925
     14.03910715,50.75664921,385.791
     14.03925135,50.75673951,385.797
     14.03938940,50.75683364,385.649
     14.03952652,50.75692323,385.279
     14.03966372,50.75701845,385.098
     14.03978586,50.75711174,384.741
     14.03988826,50.75721537,384.120
     14.03996655,50.75732816,383.673
     14.04001202,50.75744875,383.170
     14.04005039,50.75756908,382.984
     14.04011491,50.75768507,382.474
     14.04020456,50.75779178,382.333
     14.04031306,50.75788635,382.377
     14.04043120,50.75797888,382.300
     14.04052652,50.75807455,381.817
     14.04060921,50.75817456,381.258
     14.04067816,50.75827818,380.731
     14.04074736,50.75838294,380.170
     14.04081164,50.75849162,379.626
     14.04086515,50.75859879,379.058
     14.04092864,50.75871207,378.807
     14.04098814,50.75883186,378.353
     14.04104627,50.75895422,377.449
     14.04111469,50.75907428,376.979
     14.04120393,50.75918906,376.727
     14.04131691,50.75929559,377.095
     14.04144218,50.75939269,377.019
     14.04158251,50.75948462,377.067
     14.04173318,50.75957201,377.225
     14.04188577,50.75965324,376.999
     14.04204432,50.75973631,376.893
     14.04220718,50.75981376,376.218
     14.04237058,50.75989623,375.952
     14.04253693,50.75998103,375.948
     14.04271228,50.76006374,375.605
     14.04289530,50.76014266,375.666
     14.04307673,50.76021953,375.331
     14.04326303,50.76028068,374.904
     14.04345238,50.76033051,374.633
     14.04363845,50.76038184,374.439
     14.04382737,50.76042689,374.224
     14.04401167,50.76047363,373.820
     14.04419750,50.76051933,373.599
     14.04438468,50.76056753,373.367
     14.04457391,50.76061748,373.149
     14.04476363,50.76066558,372.693
     14.04495654,50.76071203,372.220
     14.04515386,50.76075982,371.794
     14.04534927,50.76081026,371.484
     14.04554233,50.76086183,370.999
     14.04573520,50.76091082,370.707
     14.04592691,50.76096082,370.468
     14.04611690,50.76101252,370.087
     14.04630514,50.76106309,369.845
     14.04648977,50.76111263,369.676
     14.04667738,50.76114864,369.349
     14.04685938,50.76115387,368.250
     14.04704258,50.76117178,368.895
     14.04722920,50.76116408,369.246
     14.04741401,50.76114686,369.825
     14.04759590,50.76112428,369.957
     14.04777617,50.76109335,370.092
     14.04795872,50.76106615,369.220
     14.04815129,50.76104960,368.769
     14.04834609,50.76104432,368.492
     14.04853857,50.76104898,368.449
     14.04873514,50.76105837,368.090
     14.04892890,50.76107663,367.484
     14.04911863,50.76109231,367.258
     14.04930348,50.76110916,367.206
     14.04949114,50.76112091,367.107
     14.04967297,50.76113163,366.698
     14.04985552,50.76114360,366.714
     14.05002894,50.76115322,366.616
     14.05021347,50.76115819,366.182
     14.05039649,50.76116019,365.802
     14.05058888,50.76115772,365.530
     14.05077270,50.76115054,365.670
     14.05095297,50.76114639,365.380
     14.05113620,50.76114065,365.319
     14.05131433,50.76112985,365.153
     14.05148826,50.76110462,365.505
     14.05166093,50.76106819,365.315
     14.05183325,50.76101954,364.940
     14.05199802,50.76096501,364.069
     14.05217561,50.76092451,363.435
     14.05234785,50.76088547,363.231
     14.05252615,50.76086643,363.224
     14.05270883,50.76086342,362.962
     14.05289140,50.76087674,362.582
     14.05307425,50.76090649,362.069
     14.05324257,50.76094962,362.193
     14.05340524,50.76100673,362.026
     14.05356542,50.76107064,361.861
     14.05372711,50.76113477,361.601
     14.05388927,50.76120022,361.412
     14.05405211,50.76126426,361.150
     14.05421276,50.76132547,360.805
     14.05437753,50.76138222,360.669
     14.05456183,50.76142620,360.031
     14.05473820,50.76143948,359.907
     14.05492140,50.76144250,360.148
     14.05509887,50.76141475,359.639
     14.05528583,50.76138002,359.154
     14.05546611,50.76135069,358.630
     14.05563743,50.76132749,358.420
     14.05581296,50.76128922,358.173
     14.05596691,50.76122812,358.249
     14.05612542,50.76116414,357.929
     14.05629252,50.76110326,357.672
     14.05646333,50.76104522,357.557
     14.05664432,50.76099785,356.905
     14.05683636,50.76095858,357.370
     14.05702798,50.76094094,357.127
     14.05722590,50.76091975,356.980
     14.05742047,50.76089766,356.755
     14.05761160,50.76086999,356.831
     14.05781074,50.76083822,356.657
     14.05800185,50.76080375,356.650
     14.05819095,50.76076945,356.173
     14.05838584,50.76073214,356.018
     14.05857795,50.76069082,356.099
     14.05876878,50.76065769,356.227
     14.05895694,50.76061968,356.457
     14.05915091,50.76058140,356.264
     14.05933536,50.76053529,355.964
     14.05951181,50.76048450,355.823
     14.05968461,50.76043066,355.641
     14.05985256,50.76037619,355.241
     14.06002243,50.76033059,354.988
     14.06020370,50.76029748,354.618
     14.06038926,50.76027369,354.079
     14.06057545,50.76026057,353.661
     14.06076610,50.76025718,353.242
     14.06096301,50.76025473,353.094
     14.06115604,50.76025841,352.690
     14.06135533,50.76026640,352.313
     14.06155485,50.76027525,352.089
     14.06175962,50.76028154,351.896
     14.06196444,50.76028669,351.486
     14.06216739,50.76028279,351.206
     14.06237004,50.76027091,350.817
     14.06257200,50.76024920,350.432
     14.06276680,50.76022263,350.373
     14.06296023,50.76019803,350.072
     14.06315359,50.76016949,350.059
     14.06334915,50.76014139,349.831
     14.06355275,50.76011592,349.643
     14.06375159,50.76008946,349.254
     14.06395067,50.76006160,349.054
     14.06415048,50.76003850,348.665
     14.06434431,50.76001371,348.668
     14.06454461,50.75999535,348.234
     14.06473938,50.75997835,348.241
     14.06492728,50.75995496,348.025
     14.06511575,50.75993043,347.929
     14.06529587,50.75989659,348.031
     14.06547668,50.75986070,347.943
     14.06564759,50.75981983,347.689
     14.06581873,50.75977896,347.366
     14.06598981,50.75973415,346.912
     14.06614993,50.75967733,346.548
     14.06630220,50.75961412,346.397
     14.06644966,50.75954645,346.227
     14.06659721,50.75947780,346.267
     14.06674675,50.75940836,346.136
     14.06689411,50.75933519,345.982
     14.06704840,50.75926437,345.760
     14.06721088,50.75919292,345.755
     14.06738156,50.75912772,345.689
     14.06754961,50.75906442,345.717
     14.06772468,50.75900091,345.656
     14.06789050,50.75893964,345.480
     14.06805618,50.75887655,345.293
     14.06822287,50.75881798,344.870
     14.06838524,50.75875867,344.561
     14.06856217,50.75870484,344.151
     14.06874340,50.75865545,344.024
     14.06892859,50.75861409,343.913
     14.06912560,50.75858420,343.773
     14.06931834,50.75855697,343.583
     14.06951071,50.75853700,343.469
     14.06970469,50.75851652,343.348
     14.06989854,50.75849882,343.368
     14.07009151,50.75848335,343.357
     14.07028441,50.75847201,343.496
     14.07047848,50.75846190,343.406
     14.07067128,50.75845953,343.485
     14.07086076,50.75846283,343.695
     14.07105152,50.75847669,343.491
     14.07123813,50.75849507,343.275
     14.07142990,50.75851304,343.233
     14.07162010,50.75852939,343.128
     14.07181463,50.75854833,343.064
     14.07200569,50.75856785,343.002
     14.07219740,50.75858677,343.073
     14.07238713,50.75860519,343.441
     14.07258516,50.75863523,343.506
     14.07277034,50.75867390,343.593
     14.07295407,50.75871606,343.977
     14.07312821,50.75877028,344.041
     14.07330427,50.75882730,344.123
     14.07348177,50.75888530,344.421
     14.07365880,50.75894273,344.915
     14.07383859,50.75899877,345.164
     14.07401494,50.75906073,345.284
     14.07417599,50.75912056,345.320
     14.07436338,50.75917449,345.583
     14.07454562,50.75923406,345.184
     14.07472880,50.75929265,345.057
     14.07491469,50.75935571,344.587
     14.07509904,50.75941517,344.410
     14.07528273,50.75946092,343.808
     14.07547075,50.75950256,343.658
     14.07565628,50.75954132,343.639
     14.07584916,50.75957548,343.453
     14.07604379,50.75960637,343.299
     14.07624120,50.75963257,343.234
     14.07644077,50.75965741,343.357
     14.07664292,50.75968304,343.429
     14.07684297,50.75970848,343.413
     14.07704471,50.75973001,343.290
     14.07724662,50.75975397,343.567
     14.07745346,50.75977839,343.453
     14.07765832,50.75980243,343.462
     14.07787006,50.75983074,344.550
     14.07807822,50.75985980,344.107
     14.07828752,50.75988678,344.126
     14.07849250,50.75991334,343.864
     14.07868483,50.75993825,343.857
     14.07888419,50.75995769,343.941
     14.07908205,50.75998230,343.910
     14.07928059,50.76000682,343.865
     14.07947856,50.76003015,343.667
     14.07967825,50.76005606,343.167
     14.07986859,50.76008088,343.100
     14.08005549,50.76010690,342.902
     14.08024032,50.76013922,342.465
     14.08041098,50.76016050,341.523
     14.08057114,50.76019316,341.430
     14.08074371,50.76023046,341.385
     14.08091677,50.76026677,341.238
     14.08109495,50.76030216,341.178
     14.08127055,50.76033064,340.726
     14.08145047,50.76035806,340.079
     14.08162812,50.76038571,339.942
     14.08181337,50.76041642,339.255
     14.08200176,50.76043858,339.296
     14.08219149,50.76046647,338.959
     14.08238848,50.76049605,338.169
     14.08258304,50.76052471,337.386
     14.08277752,50.76055173,336.751
     14.08296609,50.76057881,336.240
     14.08316142,50.76060520,335.526
     14.08335346,50.76064272,334.703
     14.08354894,50.76066640,333.796
     14.08374910,50.76069791,333.576
     14.08394504,50.76072395,332.820
     14.08413749,50.76074675,331.906
     14.08434071,50.76077650,331.247
     14.08453787,50.76080696,330.667
     14.08473842,50.76083474,329.483
     14.08493986,50.76087047,327.997
     14.08513520,50.76089741,327.326
     14.08532965,50.76092154,326.403
     14.08551897,50.76094617,325.565
     14.08571092,50.76097757,324.241
     14.08590459,50.76100301,323.131
     14.08610757,50.76102190,322.096
     14.08629698,50.76102584,321.183
     14.08648413,50.76101480,320.860
     14.08666628,50.76095518,320.424
     14.08685431,50.76090758,319.990
     14.08703683,50.76085828,319.719
     14.08722368,50.76081100,319.529
     14.08741609,50.76076332,319.543
     14.08760157,50.76071939,319.244
     14.08778786,50.76067497,319.029
     14.08797670,50.76063900,319.042
     14.08816739,50.76061046,319.036
     14.08835486,50.76058964,318.976
     14.08854254,50.76057920,319.057
     14.08873436,50.76057176,318.983
     14.08891742,50.76055920,318.922
     14.08910001,50.76054616,318.773
     14.08927989,50.76053627,318.882
     14.08946742,50.76053617,319.035
     14.08964681,50.76055957,319.106
     14.08982682,50.76059205,318.959
     14.09000134,50.76062698,318.285
     14.09018206,50.76067292,318.261
     14.09035773,50.76071992,318.359
     14.09054126,50.76076524,318.350
     14.09071796,50.76081060,318.235
     14.09089922,50.76085873,318.059
     14.09107855,50.76090618,317.940
     14.09125489,50.76095305,317.766
     14.09143223,50.76099941,317.227
     14.09160980,50.76104415,316.613
     14.09178079,50.76108956,316.360
     14.09195574,50.76113554,315.942
     14.09212329,50.76118268,315.425
     14.09230013,50.76122774,314.951
     14.09247852,50.76127111,314.578
     14.09265763,50.76131422,314.162
     14.09283328,50.76136067,313.707
     14.09300735,50.76140847,313.072
     14.09318697,50.76145354,312.529
     14.09336728,50.76149946,312.180
     14.09354982,50.76154741,311.490
     14.09373127,50.76159432,311.052
     14.09391424,50.76163918,310.688
     14.09409849,50.76167533,310.214
     14.09428124,50.76170606,310.250
     14.09446850,50.76173243,310.174
     14.09465425,50.76175164,310.261
     14.09483916,50.76176421,310.462
     14.09502169,50.76176653,310.371
     14.09520384,50.76175770,310.555
     14.09537888,50.76173513,310.300
     14.09555299,50.76170497,310.351
     14.09572245,50.76167329,310.181
     14.09589537,50.76163815,309.926
     14.09606875,50.76160184,309.995
     14.09624959,50.76156652,309.827
     14.09643554,50.76152935,309.444
     14.09661712,50.76149380,309.393
     14.09680178,50.76145705,309.324
     14.09698819,50.76141796,309.265
     14.09717757,50.76137995,309.121
     14.09737085,50.76134327,308.869
     14.09756748,50.76130898,308.519
     14.09776591,50.76127081,308.469
     14.09797058,50.76124949,308.217
     14.09817447,50.76125382,308.167
     14.09837582,50.76126800,307.689
     14.09857982,50.76129158,307.732
     14.09877984,50.76131782,307.609
     14.09897616,50.76134519,307.558
     14.09917627,50.76137220,307.436
     14.09937359,50.76140000,307.061
     14.09957337,50.76141829,306.825
     14.09976788,50.76142226,306.475
     14.09995042,50.76140455,306.119
     14.10010742,50.76135811,306.076
     14.10022754,50.76128286,306.400
     14.10030421,50.76119254,306.907
     14.10037027,50.76109593,306.947
     14.10043175,50.76099345,306.993
     14.10050751,50.76089145,306.934
     14.10060494,50.76078863,306.680
     14.10071370,50.76069026,306.830
     14.10083582,50.76059842,307.717
     14.10098940,50.76052239,307.302
     14.10113033,50.76046041,307.479
     14.10127982,50.76040569,308.114
     14.10143812,50.76035981,308.474
     14.10160259,50.76032943,308.946
     14.10177560,50.76030685,309.091
     14.10195314,50.76029113,309.266
     14.10213415,50.76028270,309.574
     14.10231558,50.76026877,309.589
     14.10250265,50.76026227,310.071
     14.10269043,50.76025182,310.196
     14.10287506,50.76024152,310.292
     14.10305196,50.76023429,310.467
     14.10323102,50.76023913,310.626
     14.10340443,50.76025631,310.354
     14.10356976,50.76027939,310.174
     14.10373558,50.76031217,310.080
     14.10389435,50.76035392,309.579
     14.10404733,50.76040390,308.947
     14.10419483,50.76046237,308.306
     14.10434470,50.76052480,307.658
     14.10449725,50.76059167,306.666
     14.10465289,50.76066068,305.893
     14.10480606,50.76073169,305.068
     14.10495360,50.76079343,304.629
     14.10509254,50.76085676,304.384
     14.10522800,50.76091659,304.104
     14.10536430,50.76097622,304.025
     14.10550011,50.76103860,303.583
     14.10563892,50.76109943,303.478
     14.10578325,50.76116270,303.524
     14.10592768,50.76122855,303.370
     14.10607049,50.76129262,303.250
     14.10621713,50.76135024,303.252
     14.10635720,50.76140706,303.281
     14.10648425,50.76146904,303.430
     14.10660160,50.76153725,303.835
     14.10671214,50.76160308,304.270
     14.10680921,50.76167032,304.145
     14.10689706,50.76174950,303.859
     14.10696166,50.76184106,303.188
     14.10699744,50.76194466,303.571
     14.10702045,50.76204656,302.837
     14.10704648,50.76215264,302.259
     14.10707128,50.76225934,301.114
     14.10709699,50.76236791,300.394
     14.10712036,50.76247083,299.844
     14.10716549,50.76257451,299.376
     14.10722811,50.76267086,298.669
     14.10733150,50.76275164,298.376
     14.10746223,50.76281033,298.111
     14.10760484,50.76285965,298.067
     14.10774888,50.76289860,297.650
     14.10790298,50.76292573,297.814
     14.10804359,50.76294620,297.497
     14.10818660,50.76296209,297.636
     14.10830062,50.76296883,297.271
     14.10838331,50.76298173,296.992
     14.10844504,50.76299311,296.914
     14.10849040,50.76300272,296.901
     14.10853992,50.76301217,296.789
     14.10859084,50.76302223,296.557
     14.10864065,50.76303903,296.846
     14.10867838,50.76305800,297.042
     14.10871014,50.76308893,297.283
     14.10874545,50.76312546,297.309
     14.10879263,50.76316469,297.312
     14.10884314,50.76321030,297.404
     14.10889711,50.76325098,297.606
     14.10895610,50.76328546,297.418
     14.10903869,50.76331056,297.026
     14.10913892,50.76332807,296.710
     14.10925475,50.76334312,296.473
     14.10938502,50.76335772,296.302
     14.10953366,50.76337590,295.920
     14.10969273,50.76339641,295.770
     14.10985749,50.76341789,295.711
     14.11002791,50.76343885,295.385
     14.11019879,50.76345929,295.027
     14.11036655,50.76348146,294.881
     14.11053894,50.76350305,294.549
     14.11070282,50.76352585,294.431
     14.11086706,50.76354990,294.131
     14.11103000,50.76357731,293.908
     14.11119242,50.76360363,293.722
     14.11135331,50.76363549,293.800
     14.11151516,50.76366960,293.818
     14.11167018,50.76370936,293.516
     14.11182855,50.76375488,293.629
     14.11198470,50.76380144,293.352
     14.11214420,50.76385207,293.386
     14.11229999,50.76390852,293.476
     14.11245020,50.76396552,293.287
     14.11259837,50.76402376,293.110
     14.11274904,50.76408195,293.039
     14.11289948,50.76413808,292.977
     14.11304868,50.76419775,292.914
     14.11319531,50.76425618,292.860
     14.11333825,50.76431646,293.350
     14.11348405,50.76437276,293.650
     14.11362701,50.76443027,293.651
     14.11376883,50.76448649,293.960
     14.11391683,50.76454547,294.124
     14.11406613,50.76460237,294.341
     14.11421568,50.76466145,294.368
     14.11437243,50.76471960,294.623
     14.11453335,50.76478033,294.701
     14.11469909,50.76484504,294.749
     14.11486465,50.76491107,295.041
     14.11503687,50.76497801,295.267
     14.11520626,50.76504725,295.195
     14.11538051,50.76511687,295.035
     14.11555817,50.76518385,294.896
     14.11573657,50.76525293,294.667
     14.11591949,50.76532066,294.329
     14.11610489,50.76539062,293.918
     14.11628944,50.76545999,293.419
     14.11647070,50.76552768,292.984
     14.11664796,50.76559791,292.959
     14.11682470,50.76566874,292.746
     14.11699431,50.76574484,292.521
     14.11715838,50.76582837,292.207
     14.11730641,50.76592103,292.043
     14.11744743,50.76601774,291.434
     14.11758542,50.76612040,290.754
     14.11772464,50.76622119,289.860
     14.11786523,50.76632207,289.212
     14.11800456,50.76642470,288.671
     14.11814845,50.76652760,287.973
     14.11828594,50.76662533,287.178
     14.11842177,50.76672023,286.417
     14.11855278,50.76681569,285.673
     14.11868405,50.76691044,284.927
     14.11881463,50.76700546,284.267
     14.11894778,50.76710053,283.571
     14.11908199,50.76719561,282.923
     14.11921612,50.76729357,282.335
     14.11935006,50.76739406,281.771
     14.11948102,50.76749539,281.169
     14.11961177,50.76759706,280.356
     14.11974966,50.76769980,279.728
     14.11987829,50.76780138,278.973
     14.11999974,50.76790035,278.208
     14.12011165,50.76800209,277.737
     14.12022738,50.76810384,277.406
     14.12034582,50.76820421,276.736
     14.12046435,50.76830235,276.131
     14.12058220,50.76840403,275.876
     14.12069763,50.76850232,275.595
     14.12081617,50.76860322,275.198
     14.12092800,50.76870395,274.725
     14.12104522,50.76880240,274.238
     14.12116167,50.76890158,273.846
     14.12127866,50.76900311,273.589
     14.12139425,50.76910146,273.415
     14.12150958,50.76919685,273.234
     14.12162139,50.76929506,273.130
     14.12171407,50.76939701,273.182
     14.12177803,50.76950205,272.613
     14.12181154,50.76961047,273.406
     14.12179850,50.76972617,272.997
     14.12175870,50.76983828,272.725
     14.12169762,50.76994849,272.360
     14.12161981,50.77005876,272.163
     14.12154214,50.77016484,272.336
     14.12146208,50.77027010,272.485
     14.12138127,50.77037818,272.839
     14.12130497,50.77048143,272.643
     14.12123696,50.77057481,272.501
     14.12117104,50.77066116,271.593
     14.12110558,50.77074690,271.069
     14.12104342,50.77083489,271.060
     14.12098338,50.77092408,270.164
     14.12092630,50.77101796,269.469
     14.12088560,50.77111616,268.971
     14.12086895,50.77121726,268.777
     14.12088727,50.77132411,268.862
     14.12094092,50.77142470,268.006
     14.12101952,50.77152214,267.674
     14.12110104,50.77162164,267.375
     14.12118798,50.77172456,266.975
     14.12127652,50.77182828,266.594
     14.12136466,50.77193326,266.240
     14.12145678,50.77203560,266.220
     14.12154217,50.77213980,265.839
     14.12163105,50.77223922,265.790
     14.12171364,50.77234142,265.465
     14.12180136,50.77244065,265.454
     14.12189213,50.77254115,266.004
     14.12198106,50.77264356,266.529
     14.12207014,50.77274418,266.768
     14.12215379,50.77284144,267.229
     14.12223490,50.77293523,267.383
     14.12233211,50.77302150,267.579
     14.12245426,50.77309111,267.598
     14.12259519,50.77314074,267.545
     14.12275397,50.77316699,267.780
     14.12291891,50.77317352,267.919
     14.12308246,50.77318408,267.997
     14.12324716,50.77320675,268.086
     14.12341253,50.77323898,268.252
     14.12357576,50.77327960,268.027
     14.12374497,50.77332353,267.918
     14.12391921,50.77336921,268.103
     14.12409281,50.77341702,268.257
     14.12426835,50.77346548,268.332
     14.12444273,50.77351558,268.360
     14.12461399,50.77356359,268.483
     14.12478214,50.77361181,268.264
     14.12495116,50.77366004,268.100
     14.12512367,50.77370948,267.745
     14.12529539,50.77375980,267.128
     14.12547134,50.77380859,266.506
     14.12564773,50.77385701,265.909
     14.12582177,50.77391093,265.517
     14.12599548,50.77395793,264.658
     14.12617293,50.77400595,264.313
     14.12634971,50.77405734,264.293
     14.12651221,50.77412134,263.784
     14.12666483,50.77419561,263.317
     14.12680259,50.77428380,262.895
     14.12692454,50.77437401,262.598
     14.12704400,50.77446615,262.601
     14.12716319,50.77455746,262.697
     14.12727737,50.77464811,262.591
     14.12739233,50.77473743,262.672
     14.12750913,50.77482607,262.635
     14.12763098,50.77491187,262.940
     14.12775350,50.77499767,263.169
     14.12787329,50.77508480,263.444
     14.12799399,50.77517269,263.802
     14.12811693,50.77525937,264.126
     14.12824291,50.77534260,264.460
     14.12837438,50.77542371,264.743
     14.12851073,50.77549867,264.868
     14.12865102,50.77557110,264.895
     14.12879994,50.77563852,264.370
     14.12895609,50.77570347,263.721
     14.12911450,50.77576749,263.198
     14.12928007,50.77582416,262.690
     14.12944896,50.77588178,262.091
     14.12962143,50.77594003,261.583
     14.12979371,50.77599740,260.857
     14.12996939,50.77605695,260.276
     14.13014173,50.77611875,259.471
     14.13032355,50.77618191,258.550
     14.13051419,50.77624802,257.841
     14.13071177,50.77631685,257.210
     14.13091207,50.77638495,256.506
     14.13111196,50.77645496,255.816
     14.13131176,50.77652355,255.154
     14.13151300,50.77659224,254.509
     14.13171635,50.77666189,253.734
     14.13191817,50.77673464,252.994
     14.13212307,50.77680855,252.304
     14.13232636,50.77688972,251.869
     14.13251908,50.77697476,251.247
     14.13270161,50.77705676,250.183
     14.13289116,50.77714372,249.195
     14.13307209,50.77723146,248.314
     14.13323988,50.77730946,247.597
     14.13340290,50.77738866,246.927
     14.13355946,50.77746446,246.307
     14.13371266,50.77753867,245.557
     14.13387134,50.77761274,244.857
     14.13403463,50.77768677,244.508
     14.13419543,50.77775972,243.944
     14.13435606,50.77783509,243.477
     14.13451527,50.77790773,243.035
     14.13467267,50.77798488,242.737
     14.13482371,50.77805804,242.294
     14.13497706,50.77813085,242.058
     14.13514072,50.77819945,241.712
     14.13530288,50.77826252,241.352
     14.13547148,50.77832363,240.942
     14.13564179,50.77838284,240.528
     14.13581475,50.77843356,240.404
     14.13599121,50.77848446,240.073
     14.13616493,50.77853264,239.669
     14.13634787,50.77858197,239.444
     14.13652562,50.77863545,239.381
     14.13670016,50.77867970,238.997
     14.13687904,50.77872965,238.762
     14.13706236,50.77878121,238.673
     14.13724356,50.77883152,238.294
     14.13743148,50.77888682,238.117
     14.13762490,50.77892965,237.311
     14.13781518,50.77899421,237.057
     14.13799877,50.77906187,236.606
     14.13818137,50.77913155,236.397
     14.13836598,50.77920118,236.257
     14.13854146,50.77927645,235.927
     14.13872076,50.77935076,235.842
     14.13890147,50.77942213,236.003
     14.13907740,50.77949029,235.293
     14.13925312,50.77956002,234.851
     14.13943194,50.77962890,234.739
     14.13960408,50.77969260,234.426
     14.13977533,50.77974841,234.218
     14.13994106,50.77980080,234.094
     14.14010839,50.77984775,233.990
     14.14027159,50.77989864,234.061
     14.14043251,50.77994678,233.939
     14.14059439,50.77999464,234.013
     14.14075788,50.78004147,233.955
     14.14092232,50.78008925,233.985
     14.14108640,50.78013645,233.670
     14.14125149,50.78018597,233.662
     14.14142123,50.78023491,233.262
     14.14158650,50.78027808,233.365
     14.14175459,50.78031366,233.203
     14.14192599,50.78034327,233.189
     14.14209514,50.78036672,233.084
     14.14225784,50.78038180,233.141
     14.14242933,50.78039472,233.183
     14.14260205,50.78041071,233.055
     14.14277695,50.78042692,232.771
     14.14295392,50.78044270,232.399
     14.14313637,50.78045920,232.233
     14.14332253,50.78047702,231.884
     14.14351209,50.78049356,231.546
     14.14370275,50.78051203,231.098
     14.14389647,50.78052946,230.943
     14.14409240,50.78054915,230.576
     14.14428585,50.78056750,230.164
     14.14448051,50.78058653,229.948
     14.14467832,50.78060487,229.757
     14.14487043,50.78062108,229.390
     14.14506443,50.78063752,228.984
     14.14525872,50.78065461,228.724
     14.14545450,50.78067476,228.382
     14.14564667,50.78069153,228.348
     14.14583490,50.78071087,228.111
     14.14602166,50.78073233,227.950
     14.14620094,50.78074919,227.985
     14.14637302,50.78076838,227.922
     14.14654952,50.78078695,227.756
     14.14672950,50.78080706,227.833
     14.14690572,50.78082205,227.642
     14.14708120,50.78083763,227.539
     14.14725493,50.78085531,227.618
     14.14742570,50.78087167,227.303
     14.14759864,50.78089183,227.085
     14.14777621,50.78090936,226.845
     14.14795553,50.78092515,226.721
     14.14813680,50.78094111,226.535
     14.14832211,50.78095794,226.175
     14.14850579,50.78097453,226.005
     14.14868697,50.78098963,225.513
     14.14886739,50.78100302,225.326
    </coordinates>
   </LineString>
  </Placemark>

 </Document>
</kml>
 