<?xml version="1.0" encoding="UTF-8"?>
<!-- Created with BasicAirData GPS Logger for Android - ver. 3.3.0 -->
<!-- Track 2 = 1126 TrackPoints + 0 Placemarks -->
<kml xmlns="http://www.opengis.net/kml/2.2">
 <Document>
  <name>GPS Logger 20260927-102923</name>
  <description><![CDATA[Trasa1
1126 Trackpoints + 0 Placemarks]]></description>
  <Style id="TrackStyle">
   <LineStyle>
    <color>ff0000ff</color>
    <width>3</width>
   </LineStyle>
   <PolyStyle>
    <color>7f0000ff</color>
   </PolyStyle>
   <BalloonStyle>
    <text><![CDATA[<p style="color:red;font-weight:bold">$[name]</p><p style="font-size:11px">$[description]</p><p style="font-size:7px">Track Stats based on: Total time | Time in Movement</p>]]></text>
   </BalloonStyle>
  </Style>

  <Placemark id="20260927-102923">
   <name>Track 20260927-102923</name>
   <description><![CDATA[<b>Trasa1</b><br><br>Distance = 31,6 km<br>Duration = 20:05 | 20:05<br>Altitude Gap = 10 m<br>Max Speed = 126 km/h<br>Avg Speed = 94,7 | 94,7 km/h<br>Direction = NW <br><br><i>1126 Trackpoints</i>]]></description>
   <styleUrl>#TrackStyle</styleUrl>
   <LineString>
    <extrude>0</extrude>
    <tessellate>0</tessellate>
    <altitudeMode>clampToGround</altitudeMode>
    <coordinates>
     14.19081427,50.43286680,213.480
     14.19051402,50.43303667,213.153
     14.19020274,50.43320194,212.836
     14.18988666,50.43336807,212.461
     14.18957205,50.43353236,212.215
     14.18924989,50.43369702,211.963
     14.18892090,50.43386071,212.004
     14.18859214,50.43402259,212.238
     14.18825679,50.43417807,211.958
     14.18794088,50.43433347,210.945
     14.18761284,50.43448486,210.724
     14.18728868,50.43463317,210.356
     14.18696693,50.43477873,210.101
     14.18664778,50.43492515,209.905
     14.18632832,50.43506755,209.790
     14.18600678,50.43520723,209.074
     14.18568641,50.43534270,208.886
     14.18536038,50.43547828,208.472
     14.18503821,50.43561035,208.393
     14.18471617,50.43574521,208.587
     14.18438615,50.43587693,208.153
     14.18405249,50.43600491,207.851
     14.18371775,50.43613031,207.344
     14.18338510,50.43625637,206.938
     14.18305519,50.43638208,206.694
     14.18272651,50.43650515,206.614
     14.18240018,50.43662506,206.282
     14.18207969,50.43674138,206.823
     14.18175851,50.43685554,206.138
     14.18142562,50.43696302,205.692
     14.18108711,50.43706703,205.521
     14.18074049,50.43717683,205.262
     14.18038774,50.43728519,205.228
     14.18002554,50.43739499,205.220
     14.17965818,50.43751099,204.676
     14.17928746,50.43763089,204.408
     14.17890357,50.43774552,203.969
     14.17852310,50.43786054,203.894
     14.17814914,50.43797927,203.640
     14.17777450,50.43809526,203.520
     14.17739975,50.43821176,203.121
     14.17702214,50.43832388,202.825
     14.17663942,50.43842501,202.904
     14.17625999,50.43852506,202.942
     14.17588510,50.43862470,202.833
     14.17551612,50.43872178,202.824
     14.17514540,50.43881566,202.431
     14.17478180,50.43890250,202.411
     14.17442661,50.43898702,202.321
     14.17407330,50.43906672,202.560
     14.17373489,50.43914541,202.720
     14.17339504,50.43921627,202.790
     14.17305948,50.43928817,203.027
     14.17272680,50.43935565,202.951
     14.17239907,50.43942358,203.068
     14.17208178,50.43948600,202.796
     14.17175941,50.43954833,202.427
     14.17144407,50.43960662,202.367
     14.17114396,50.43966435,202.764
     14.17085123,50.43971596,202.489
     14.17055942,50.43977095,202.792
     14.17026976,50.43982673,202.464
     14.16998332,50.43988140,202.688
     14.16970084,50.43993755,203.667
     14.16942491,50.43998593,203.491
     14.16913707,50.44003458,203.704
     14.16884903,50.44008145,204.321
     14.16855783,50.44012972,204.708
     14.16826561,50.44016963,204.931
     14.16797683,50.44021056,205.158
     14.16769964,50.44025200,205.393
     14.16743511,50.44028529,205.188
     14.16718040,50.44031719,205.012
     14.16693113,50.44035545,205.155
     14.16668021,50.44039071,205.690
     14.16643187,50.44042216,206.240
     14.16618369,50.44045533,206.971
     14.16593534,50.44048842,207.093
     14.16568272,50.44052283,206.846
     14.16542264,50.44055422,207.118
     14.16515602,50.44059058,207.072
     14.16487075,50.44062615,207.461
     14.16457720,50.44066522,207.463
     14.16427959,50.44070414,207.627
     14.16397862,50.44074325,207.653
     14.16368223,50.44078225,207.793
     14.16337515,50.44082002,207.992
     14.16306950,50.44086039,208.412
     14.16276268,50.44089807,208.599
     14.16245777,50.44093624,208.941
     14.16215139,50.44097913,208.602
     14.16184100,50.44102122,208.877
     14.16153257,50.44106476,209.130
     14.16121998,50.44110677,209.498
     14.16090796,50.44114468,209.682
     14.16060183,50.44118754,209.754
     14.16028941,50.44123017,209.740
     14.15997933,50.44126741,209.555
     14.15966662,50.44130397,209.755
     14.15935383,50.44134264,209.777
     14.15904814,50.44138475,209.919
     14.15874593,50.44142512,210.471
     14.15843975,50.44146249,210.943
     14.15813341,50.44150056,211.102
     14.15782866,50.44153984,211.354
     14.15752047,50.44158041,211.711
     14.15721838,50.44161712,211.475
     14.15692147,50.44165736,211.738
     14.15662434,50.44169364,211.934
     14.15632939,50.44173412,212.004
     14.15603573,50.44177160,212.255
     14.15574165,50.44181272,212.176
     14.15545126,50.44185128,212.254
     14.15516193,50.44189170,212.213
     14.15487423,50.44192741,212.604
     14.15458541,50.44196431,212.793
     14.15429485,50.44200114,212.849
     14.15400268,50.44203878,212.536
     14.15371206,50.44207590,212.616
     14.15341820,50.44211337,212.801
     14.15312176,50.44215205,212.875
     14.15282166,50.44219086,212.825
     14.15252029,50.44222752,213.099
     14.15222050,50.44226735,213.351
     14.15192464,50.44230817,213.570
     14.15162645,50.44234689,213.966
     14.15133160,50.44238362,214.230
     14.15103774,50.44242173,214.390
     14.15074858,50.44246008,214.570
     14.15046213,50.44249644,214.898
     14.15017276,50.44252785,215.210
     14.14988625,50.44256746,215.348
     14.14959485,50.44259755,215.435
     14.14929865,50.44263057,215.943
     14.14897597,50.44266865,216.264
     14.14863766,50.44270890,216.745
     14.14829233,50.44274830,217.464
     14.14793941,50.44278738,218.014
     14.14757507,50.44283757,218.684
     14.14721045,50.44288411,219.355
     14.14683771,50.44293111,220.319
     14.14647123,50.44297452,220.545
     14.14610456,50.44302402,220.990
     14.14573893,50.44307381,221.669
     14.14536669,50.44312226,222.260
     14.14498777,50.44317098,223.148
     14.14461392,50.44322172,223.938
     14.14424260,50.44327509,224.709
     14.14387879,50.44332989,225.415
     14.14351341,50.44338207,226.278
     14.14315150,50.44343819,227.184
     14.14278493,50.44349415,227.685
     14.14242395,50.44355017,228.943
     14.14206835,50.44361040,229.857
     14.14170011,50.44367696,230.537
     14.14133046,50.44374172,231.276
     14.14096017,50.44380992,232.365
     14.14058743,50.44388102,233.144
     14.14021202,50.44395387,234.145
     14.13983528,50.44402816,235.037
     14.13945600,50.44410477,236.051
     14.13907389,50.44418327,237.105
     14.13869083,50.44426318,238.021
     14.13830699,50.44434758,239.052
     14.13792810,50.44443291,239.781
     14.13755262,50.44452296,240.880
     14.13717897,50.44461040,241.392
     14.13681045,50.44469717,242.396
     14.13644629,50.44478743,243.748
     14.13608495,50.44488078,244.721
     14.13572285,50.44497497,245.642
     14.13536363,50.44507308,246.520
     14.13500767,50.44517300,246.946
     14.13465175,50.44527153,247.460
     14.13429519,50.44537578,248.311
     14.13393687,50.44548052,249.242
     14.13357650,50.44558752,249.950
     14.13321686,50.44569803,250.608
     14.13285226,50.44581001,251.683
     14.13248870,50.44592271,252.347
     14.13212464,50.44603822,252.955
     14.13176235,50.44615700,253.778
     14.13140478,50.44627978,254.525
     14.13104859,50.44640347,255.276
     14.13069534,50.44652969,256.057
     14.13034000,50.44665831,256.780
     14.12998924,50.44679009,257.400
     14.12963489,50.44692164,258.092
     14.12927687,50.44705479,258.570
     14.12892308,50.44719069,259.219
     14.12857148,50.44733172,259.804
     14.12821753,50.44747466,260.520
     14.12786404,50.44761877,261.037
     14.12751345,50.44776699,261.698
     14.12716658,50.44791537,262.214
     14.12682450,50.44806514,262.623
     14.12648441,50.44821255,263.154
     14.12614841,50.44836027,263.369
     14.12581024,50.44850787,263.637
     14.12548801,50.44866215,264.231
     14.12516799,50.44881448,264.754
     14.12484512,50.44896836,265.309
     14.12452006,50.44912680,265.782
     14.12418853,50.44928957,266.521
     14.12386422,50.44945306,266.824
     14.12353840,50.44961729,267.339
     14.12321873,50.44978248,267.638
     14.12291363,50.44994937,268.248
     14.12260961,50.45011506,268.554
     14.12231443,50.45027906,269.229
     14.12202606,50.45043888,269.609
     14.12174856,50.45059920,269.997
     14.12147663,50.45075929,270.426
     14.12121348,50.45091744,270.702
     14.12095598,50.45107291,270.989
     14.12070113,50.45122753,271.164
     14.12044996,50.45138245,271.303
     14.12020075,50.45153758,271.198
     14.11995628,50.45169470,271.268
     14.11970883,50.45185172,271.277
     14.11946419,50.45200780,271.555
     14.11921793,50.45216302,271.741
     14.11897439,50.45231923,271.885
     14.11873785,50.45248062,271.948
     14.11849684,50.45264707,272.118
     14.11825196,50.45281472,272.239
     14.11801313,50.45298838,272.002
     14.11776447,50.45316234,272.331
     14.11752249,50.45333675,272.225
     14.11728675,50.45350908,271.983
     14.11705922,50.45367521,271.870
     14.11684531,50.45383680,271.909
     14.11663654,50.45399587,271.324
     14.11643329,50.45415311,270.923
     14.11623880,50.45430837,270.714
     14.11605312,50.45445655,270.494
     14.11587873,50.45460665,270.466
     14.11570901,50.45475629,270.364
     14.11554103,50.45490331,270.035
     14.11537339,50.45504793,269.865
     14.11520808,50.45519031,269.775
     14.11504569,50.45533063,269.404
     14.11488179,50.45547237,269.310
     14.11471733,50.45561235,268.960
     14.11455674,50.45575556,268.690
     14.11439655,50.45589991,268.456
     14.11424131,50.45604529,268.305
     14.11408027,50.45619540,268.166
     14.11392210,50.45634644,268.204
     14.11375604,50.45650000,268.259
     14.11359064,50.45665777,268.231
     14.11342206,50.45681936,268.098
     14.11326274,50.45698399,267.968
     14.11310140,50.45714775,267.717
     14.11294040,50.45731072,267.366
     14.11278253,50.45747550,266.994
     14.11262574,50.45764066,267.014
     14.11247068,50.45780269,266.835
     14.11232175,50.45796349,266.589
     14.11217421,50.45812841,266.701
     14.11202405,50.45829201,266.641
     14.11187727,50.45845896,266.716
     14.11172904,50.45862752,266.324
     14.11158130,50.45879548,266.001
     14.11143342,50.45896619,265.780
     14.11129047,50.45913785,265.266
     14.11114767,50.45931312,264.953
     14.11100516,50.45948453,264.963
     14.11086309,50.45965927,264.699
     14.11072234,50.45983562,264.455
     14.11058714,50.46001255,264.280
     14.11044859,50.46019081,264.033
     14.11031179,50.46036997,263.967
     14.11017573,50.46054935,264.003
     14.11004238,50.46072900,263.572
     14.10991385,50.46090852,263.240
     14.10977744,50.46109199,263.192
     14.10965107,50.46127312,262.935
     14.10951874,50.46145592,262.749
     14.10938960,50.46163890,262.483
     14.10926318,50.46182000,261.934
     14.10913376,50.46200443,261.590
     14.10900093,50.46218920,261.368
     14.10887305,50.46237371,260.969
     14.10874524,50.46255858,260.781
     14.10861272,50.46273965,260.451
     14.10848304,50.46292489,260.242
     14.10767545,50.46404892,258.071
     14.10753256,50.46423749,257.420
     14.10739050,50.46442726,257.036
     14.10724337,50.46461793,256.681
     14.10709490,50.46480381,256.127
     14.10694328,50.46499202,255.715
     14.10678483,50.46518018,255.551
     14.10662545,50.46536786,255.382
     14.10646322,50.46555549,255.265
     14.10629418,50.46573735,254.840
     14.10612867,50.46592252,254.863
     14.10596343,50.46610360,254.642
     14.10578968,50.46628516,254.729
     14.10561291,50.46645944,254.530
     14.10543098,50.46663373,254.217
     14.10524669,50.46680856,254.290
     14.10506198,50.46697894,253.939
     14.10487424,50.46715062,253.915
     14.10468461,50.46731717,253.918
     14.10449025,50.46748760,254.062
     14.10429371,50.46765447,254.272
     14.10409532,50.46781676,254.166
     14.10389677,50.46797807,254.164
     14.10369937,50.46813688,254.212
     14.10349502,50.46829195,254.171
     14.10329012,50.46844672,254.160
     14.10308002,50.46860087,254.223
     14.10286315,50.46875150,254.279
     14.10264747,50.46890390,254.067
     14.10242946,50.46905422,254.129
     14.10220651,50.46920173,254.170
     14.10198154,50.46934835,254.286
     14.10175864,50.46949526,254.499
     14.10153001,50.46963814,254.626
     14.10129714,50.46977875,254.730
     14.10106186,50.46991934,254.781
     14.10082440,50.47005621,255.133
     14.10058539,50.47019365,255.186
     14.10034484,50.47032759,255.211
     14.10010256,50.47045913,255.487
     14.09985354,50.47058930,255.589
     14.09960378,50.47072083,255.803
     14.09935367,50.47085017,255.912
     14.09909770,50.47097836,256.211
     14.09884596,50.47110447,256.304
     14.09859857,50.47123120,256.359
     14.09834678,50.47135765,256.605
     14.09809242,50.47148424,256.969
     14.09783462,50.47161174,257.241
     14.09757229,50.47173748,257.278
     14.09731046,50.47186202,257.527
     14.09704678,50.47199052,257.765
     14.09678349,50.47211605,258.019
     14.09651747,50.47224046,258.206
     14.09625335,50.47236648,258.508
     14.09599763,50.47249560,258.479
     14.09574228,50.47262373,258.459
     14.09547651,50.47275002,258.676
     14.09521655,50.47287416,258.954
     14.09495797,50.47299824,259.097
     14.09470006,50.47312295,259.534
     14.09444623,50.47325246,259.502
     14.09418539,50.47338237,259.825
     14.09392959,50.47351479,259.972
     14.09367247,50.47364323,259.947
     14.09341897,50.47377377,259.968
     14.09317230,50.47390329,259.968
     14.09292406,50.47403830,259.963
     14.09267728,50.47416938,260.126
     14.09243503,50.47430051,260.532
     14.09219098,50.47443371,260.528
     14.09194718,50.47456589,260.503
     14.09170847,50.47470061,260.527
     14.09147347,50.47483747,260.418
     14.09123505,50.47497562,260.424
     14.09099785,50.47511343,260.229
     14.09076563,50.47525341,259.990
     14.09053731,50.47539582,259.813
     14.09030368,50.47553525,259.759
     14.09007170,50.47567583,259.509
     14.08983802,50.47581662,259.488
     14.08960638,50.47595938,259.288
     14.08937720,50.47610133,259.154
     14.08915328,50.47624591,258.865
     14.08892955,50.47638719,258.659
     14.08870580,50.47652889,258.643
     14.08848396,50.47666926,258.260
     14.08827061,50.47681044,257.941
     14.08806251,50.47694561,256.926
     14.08785762,50.47708725,256.679
     14.08765533,50.47722693,256.301
     14.08745016,50.47736263,255.821
     14.08725493,50.47750054,255.665
     14.08706119,50.47764120,255.499
     14.08686713,50.47777984,255.273
     14.08666999,50.47791855,255.111
     14.08646910,50.47806002,254.941
     14.08626675,50.47820204,254.727
     14.08606545,50.47834861,254.418
     14.08587170,50.47849632,254.013
     14.08567334,50.47864462,253.852
     14.08547364,50.47879100,253.548
     14.08527304,50.47894207,253.393
     14.08507831,50.47909089,253.042
     14.08488867,50.47924204,252.879
     14.08470037,50.47939063,252.426
     14.08451331,50.47954259,252.169
     14.08432717,50.47969655,251.885
     14.08414133,50.47984999,251.587
     14.08396022,50.48000826,251.347
     14.08377919,50.48016840,251.090
     14.08359733,50.48032733,250.692
     14.08341558,50.48048683,250.284
     14.08323580,50.48064606,249.885
     14.08305513,50.48080606,249.510
     14.08287532,50.48096563,249.049
     14.08270241,50.48112498,248.517
     14.08253328,50.48128598,248.421
     14.08235661,50.48144638,248.121
     14.08218109,50.48160658,247.512
     14.08200253,50.48176214,247.147
     14.08182626,50.48192177,246.831
     14.08165742,50.48208190,246.637
     14.08149176,50.48224465,246.039
     14.08133044,50.48240696,245.946
     14.08117331,50.48257031,245.641
     14.08101409,50.48273507,245.300
     14.08085827,50.48290041,245.039
     14.08070931,50.48306686,244.683
     14.08056453,50.48323618,244.525
     14.08041339,50.48340872,244.098
     14.08025507,50.48358445,243.483
     14.08010359,50.48376382,242.918
     14.07994409,50.48394436,242.331
     14.07977843,50.48412264,242.079
     14.07962229,50.48430865,241.464
     14.07946493,50.48449372,240.950
     14.07930757,50.48468113,240.202
     14.07914963,50.48486599,239.696
     14.07898802,50.48505127,239.426
     14.07883578,50.48524002,238.881
     14.07505642,50.49067809,227.816
     14.07493269,50.49085608,227.721
     14.07480920,50.49103218,227.366
     14.07468945,50.49120661,227.026
     14.07456595,50.49138168,226.535
     14.07443865,50.49155644,226.177
     14.07430885,50.49173133,226.018
     14.07418458,50.49190949,225.223
     14.07405136,50.49208569,224.883
     14.07391640,50.49225805,224.307
     14.07378122,50.49243420,224.012
     14.07364502,50.49261627,223.334
     14.07349232,50.49279099,222.735
     14.07333596,50.49297653,222.412
     14.07317733,50.49316115,222.026
     14.07301504,50.49335026,221.968
     14.07284494,50.49353637,221.758
     14.07267034,50.49372234,221.338
     14.07249878,50.49390219,220.870
     14.07232726,50.49408622,220.820
     14.07214919,50.49426244,220.067
     14.07197433,50.49444082,220.095
     14.07179647,50.49461383,219.798
     14.07160928,50.49478601,219.954
     14.07141804,50.49495003,219.446
     14.07122958,50.49511473,219.257
     14.07104142,50.49527730,219.076
     14.07085302,50.49543972,218.457
     14.07066607,50.49559969,217.990
     14.07047880,50.49575855,217.721
     14.07029183,50.49591745,217.436
     14.07010247,50.49607588,216.779
     14.06990857,50.49623404,216.579
     14.06971581,50.49638969,216.193
     14.06952203,50.49654183,215.825
     14.06933003,50.49669208,215.613
     14.06913600,50.49684234,215.211
     14.06895118,50.49699097,214.866
     14.06875840,50.49713619,214.325
     14.06856182,50.49728090,213.784
     14.06836193,50.49742374,213.411
     14.06815673,50.49757338,212.920
     14.06793815,50.49772340,212.531
     14.06771299,50.49787155,212.403
     14.06748010,50.49801804,212.184
     14.06725845,50.49816489,211.896
     14.06703737,50.49831222,211.668
     14.06680876,50.49845465,211.245
     14.06657690,50.49859774,211.005
     14.06634761,50.49874113,210.620
     14.06611375,50.49888163,210.241
     14.06587857,50.49902130,209.851
     14.06563368,50.49915914,209.620
     14.06538981,50.49929112,209.101
     14.06515141,50.49942325,208.693
     14.06491684,50.49955585,208.431
     14.06466621,50.49968554,208.111
     14.06441175,50.49981682,207.920
     14.06415903,50.49994826,207.628
     14.06390390,50.50007550,207.400
     14.06365011,50.50020105,206.807
     14.06339333,50.50032561,206.623
     14.06313904,50.50044987,206.489
     14.06287867,50.50057081,206.321
     14.06261802,50.50069096,206.005
     14.06235571,50.50080923,205.864
     14.06208917,50.50092235,205.687
     14.06182462,50.50103434,205.770
     14.06155695,50.50114544,205.416
     14.06128460,50.50125612,205.093
     14.06101091,50.50136637,204.790
     14.06073267,50.50147386,204.614
     14.06045122,50.50158310,204.511
     14.06016720,50.50169121,204.264
     14.05988411,50.50179500,204.035
     14.05960454,50.50189516,203.923
     14.05932376,50.50199462,203.796
     14.05904414,50.50209092,203.640
     14.05876268,50.50218412,203.660
     14.05849048,50.50227538,203.461
     14.05821993,50.50236417,203.465
     14.05794960,50.50244749,203.596
     14.05768350,50.50253093,203.442
     14.05741970,50.50261154,203.679
     14.05716048,50.50269168,203.393
     14.05690544,50.50276803,203.523
     14.05665443,50.50284301,203.664
     14.05640500,50.50291593,203.624
     14.05616008,50.50298447,203.811
     14.05591847,50.50305224,204.033
     14.05567842,50.50311728,204.110
     14.05544346,50.50318106,204.251
     14.05520840,50.50324185,204.326
     14.05497393,50.50330216,204.464
     14.05474170,50.50336598,204.305
     14.05450389,50.50341842,204.146
     14.05425954,50.50348176,204.195
     14.05400852,50.50354266,204.216
     14.05375847,50.50361076,204.624
     14.05350719,50.50367972,204.689
     14.05324473,50.50374460,204.580
     14.05298080,50.50380991,204.711
     14.05271745,50.50387528,204.857
     14.05245506,50.50393982,205.138
     14.05219233,50.50400989,205.128
     14.05193243,50.50407889,205.138
     14.05167480,50.50414803,205.324
     14.05141500,50.50421255,205.445
     14.05115776,50.50427424,205.591
     14.05089889,50.50434006,205.859
     14.05063632,50.50440208,206.213
     14.05037335,50.50446701,206.597
     14.05010960,50.50452936,206.786
     14.04984516,50.50459444,207.018
     14.04958565,50.50465840,207.190
     14.04933049,50.50472271,207.665
     14.04907623,50.50478918,207.952
     14.04881625,50.50485357,208.174
     14.04855389,50.50491934,208.398
     14.04828842,50.50498558,208.626
     14.04802730,50.50505101,208.907
     14.04776697,50.50511714,209.364
     14.04750262,50.50518401,209.488
     14.04723791,50.50524991,209.850
     14.04696692,50.50531696,209.953
     14.04669180,50.50538495,210.045
     14.04640804,50.50545273,210.227
     14.04611865,50.50552349,210.314
     14.04582234,50.50559969,210.633
     14.04552493,50.50567506,210.716
     14.04522999,50.50574968,210.775
     14.04493064,50.50582462,211.135
     14.04463657,50.50590095,211.082
     14.04433541,50.50597786,211.217
     14.04403859,50.50605069,211.170
     14.04373639,50.50613014,211.381
     14.04343774,50.50620458,211.413
     14.04313431,50.50628034,211.381
     14.04282907,50.50635746,211.537
     14.04252792,50.50643026,211.334
     14.04222090,50.50650733,211.653
     14.04191613,50.50658514,211.682
     14.04161066,50.50666086,211.690
     14.04130444,50.50674079,211.523
     14.04099735,50.50681848,211.783
     14.04068692,50.50689492,211.923
     14.04038051,50.50697069,211.883
     14.04007479,50.50704500,211.863
     14.03976306,50.50711938,211.687
     14.03944813,50.50719687,211.133
     14.03912940,50.50727336,210.923
     14.03879598,50.50735047,210.708
     14.03845514,50.50743379,210.763
     14.03810289,50.50752339,210.257
     14.03775294,50.50761714,210.148
     14.03739696,50.50771502,210.209
     14.03703913,50.50781268,209.968
     14.03667907,50.50791248,209.889
     14.03632249,50.50801627,209.936
     14.03595994,50.50811926,210.018
     14.03559664,50.50822640,209.977
     14.03523122,50.50833340,210.224
     14.03486587,50.50844418,210.376
     14.03449785,50.50855840,210.573
     14.03412563,50.50867717,210.708
     14.03375048,50.50880029,211.083
     14.03337462,50.50892593,211.654
     14.03299500,50.50905612,212.199
     14.03261507,50.50918467,213.083
     14.03223484,50.50932132,213.916
     14.03185242,50.50946328,214.622
     14.03147252,50.50960456,215.366
     14.03109591,50.50974938,216.568
     14.03071802,50.50989677,217.341
     14.03033783,50.51004603,218.785
     14.02996205,50.51019688,219.795
     14.02959667,50.51034934,221.113
     14.02923375,50.51050219,222.393
     14.02887832,50.51065600,223.839
     14.02852224,50.51080938,225.605
     14.02817120,50.51096727,226.950
     14.02782244,50.51112234,228.526
     14.02748046,50.51128249,229.754
     14.02713955,50.51144244,231.185
     14.02680841,50.51159895,232.559
     14.02648492,50.51175798,233.862
     14.02616983,50.51191285,234.935
     14.02585526,50.51206753,236.220
     14.02554253,50.51222325,237.555
     14.02523795,50.51238305,238.495
     14.02493278,50.51254076,239.896
     14.02462817,50.51269776,241.142
     14.02432757,50.51285431,242.390
     14.02402785,50.51300287,243.118
     14.02375030,50.51316029,244.365
     14.02346634,50.51331069,245.239
     14.02318764,50.51345931,245.826
     14.02290957,50.51360413,246.355
     14.02263842,50.51374263,247.955
     14.02236618,50.51388339,248.589
     14.02209872,50.51401938,250.462
     14.02183226,50.51415884,251.739
     14.02156727,50.51430340,252.973
     14.02129604,50.51444652,254.299
     14.02102384,50.51459318,255.086
     14.02074716,50.51474149,256.391
     14.02046360,50.51489052,257.825
     14.02017703,50.51504086,258.893
     14.01988762,50.51519303,260.251
     14.01960031,50.51534816,261.443
     14.01930958,50.51550160,262.637
     14.01901939,50.51565438,263.865
     14.01873115,50.51580703,265.150
     14.01844578,50.51595950,265.953
     14.01815882,50.51611209,267.493
     14.01787277,50.51626293,268.495
     14.01758597,50.51641414,269.455
     14.01729693,50.51656324,270.627
     14.01701008,50.51671307,271.627
     14.01672435,50.51686266,272.830
     14.01644004,50.51701246,273.966
     14.01615591,50.51716036,275.205
     14.01586949,50.51730895,276.237
     14.01558270,50.51745892,277.450
     14.01529644,50.51761005,278.683
     14.01501231,50.51776174,279.955
     14.01472614,50.51790946,281.192
     14.01444068,50.51805787,282.308
     14.01415641,50.51820620,283.280
     14.01387591,50.51835288,284.506
     14.01359564,50.51850187,285.753
     14.01331458,50.51864940,286.585
     14.01303777,50.51879591,287.921
     14.01275917,50.51894202,289.119
     14.01247868,50.51908784,290.275
     14.01220232,50.51923304,291.427
     14.01191935,50.51938132,292.515
     14.01164255,50.51952542,293.878
     14.01136709,50.51967138,295.068
     14.01108939,50.51981815,296.407
     14.01081151,50.51996378,297.622
     14.01053614,50.52011036,298.275
     14.01026644,50.52025588,298.432
     14.01000465,50.52041192,299.085
     14.00972659,50.52057330,300.951
     14.00944137,50.52072901,302.561
     14.00915403,50.52088390,303.797
     14.00886402,50.52103568,305.277
     14.00857167,50.52119080,306.586
     14.00827857,50.52134608,307.613
     14.00798094,50.52150063,309.024
     14.00768699,50.52165402,310.438
     14.00739169,50.52181282,311.876
     14.00709334,50.52197030,312.962
     14.00679100,50.52212953,314.451
     14.00648619,50.52229157,315.796
     14.00617951,50.52245869,317.007
     14.00586690,50.52262801,318.309
     14.00555966,50.52279888,319.950
     14.00525524,50.52297287,321.283
     14.00495249,50.52315338,322.716
     14.00465473,50.52333592,323.928
     14.00438436,50.52352651,324.544
     14.00408759,50.52371347,326.252
     14.00380252,50.52390370,327.676
     14.00351872,50.52410230,329.372
     14.00323920,50.52429607,330.790
     14.00297535,50.52449878,332.698
     14.00271349,50.52469977,333.765
     14.00245096,50.52490322,335.245
     14.00220135,50.52511108,336.196
     14.00195723,50.52531894,337.334
     14.00171459,50.52552673,339.009
     14.00148487,50.52573563,340.299
     14.00126192,50.52594415,341.620
     14.00104004,50.52615835,342.933
     14.00082401,50.52637525,343.964
     14.00061062,50.52659432,345.257
     14.00040312,50.52681341,346.218
     14.00020076,50.52703656,346.672
     14.00000839,50.52726173,347.852
     13.99982024,50.52748674,348.455
     13.99963461,50.52771437,348.949
     13.99945690,50.52794750,349.566
     13.99928473,50.52818066,349.692
     13.99912283,50.52841394,350.227
     13.99896534,50.52864918,350.186
     13.99881056,50.52888295,350.645
     13.99866275,50.52911945,351.330
     13.99851686,50.52936121,351.593
     13.99838108,50.52960486,352.258
     13.99824676,50.52984986,352.441
     13.99812147,50.53009541,352.781
     13.99800422,50.53034409,353.436
     13.99789287,50.53058817,353.230
     13.99778497,50.53084067,353.086
     13.99768108,50.53108952,353.030
     13.99757597,50.53134026,352.508
     13.99747792,50.53159385,352.826
     13.99738283,50.53185596,352.496
     13.99729029,50.53212354,352.554
     13.99721504,50.53239633,352.458
     13.99714859,50.53267172,352.509
     13.99709506,50.53294561,352.470
     13.99705063,50.53322020,352.653
     13.99701325,50.53349359,352.643
     13.99697435,50.53376709,352.339
     13.99694984,50.53404337,351.944
     13.99693674,50.53431350,351.354
     13.99692850,50.53458636,351.004
     13.99692262,50.53485899,350.950
     13.99692089,50.53512884,351.077
     13.99693337,50.53539821,350.780
     13.99695099,50.53567241,351.011
     13.99697254,50.53594601,350.707
     13.99700312,50.53621999,350.179
     13.99704180,50.53649190,349.869
     13.99708774,50.53676460,349.600
     13.99714070,50.53703729,349.537
     13.99720156,50.53731137,349.119
     13.99726724,50.53758270,348.773
     13.99734334,50.53785394,348.326
     13.99743223,50.53812458,347.751
     13.99752495,50.53839346,347.322
     13.99762282,50.53866205,346.788
     13.99773105,50.53893028,346.200
     13.99784197,50.53919444,345.633
     13.99795969,50.53945748,344.872
     13.99808307,50.53972065,344.564
     13.99821589,50.53997991,343.968
     13.99835904,50.54023874,343.842
     13.99851037,50.54049535,343.310
     13.99867005,50.54074736,342.700
     13.99884468,50.54099439,342.338
     13.99902147,50.54124551,342.563
     13.99921139,50.54148985,342.140
     13.99941262,50.54173238,341.536
     13.99962274,50.54197336,341.081
     13.99984540,50.54221007,340.291
     14.00007356,50.54244273,339.863
     14.00031419,50.54267666,339.150
     14.00056119,50.54289946,338.276
     14.00082066,50.54311932,337.316
     14.00108713,50.54333927,336.212
     14.00136417,50.54355322,335.203
     14.00164974,50.54376390,334.134
     14.00194384,50.54397013,333.188
     14.00224421,50.54417094,332.215
     14.00255202,50.54436995,331.322
     14.00286940,50.54456398,330.375
     14.00319179,50.54475210,329.639
     14.00351911,50.54493311,328.699
     14.00384935,50.54511035,327.902
     14.00418390,50.54528372,327.164
     14.00452265,50.54545662,326.653
     14.00485815,50.54562785,325.803
     14.00519574,50.54579940,325.410
     14.00553237,50.54596821,324.808
     14.00586734,50.54614386,324.190
     14.00620177,50.54632102,323.579
     14.00653677,50.54650168,322.871
     14.00687403,50.54668642,322.284
     14.00720875,50.54687675,321.815
     14.00753478,50.54707445,321.200
     14.00784608,50.54727640,320.879
     14.00814989,50.54748138,320.419
     14.00844596,50.54769175,319.910
     14.00873262,50.54790634,319.572
     14.00901018,50.54812236,319.348
     14.00928346,50.54834278,318.980
     14.00954255,50.54857134,319.056
     14.00979275,50.54879817,318.761
     14.01003451,50.54903573,318.676
     14.01026666,50.54927538,318.731
     14.01050011,50.54952213,318.965
     14.01071873,50.54977466,318.941
     14.01092805,50.55002778,319.055
     14.01112785,50.55028714,318.905
     14.01132218,50.55055529,318.763
     14.01149054,50.55082974,318.654
     14.01164214,50.55110820,318.694
     14.01178253,50.55139151,318.801
     14.01192513,50.55167325,318.751
     14.01205616,50.55196401,318.715
     14.01218875,50.55225544,318.940
     14.01231087,50.55254613,318.857
     14.01241981,50.55284051,319.478
     14.01252381,50.55313746,319.933
     14.01263238,50.55343597,320.031
     14.01273435,50.55373693,320.131
     14.01283718,50.55403465,319.957
     14.01293984,50.55433722,320.912
     14.01304474,50.55464151,321.197
     14.01315011,50.55494567,321.732
     14.01324765,50.55525271,322.380
     14.01335162,50.55555729,322.625
     14.01345368,50.55586534,323.083
     14.01355706,50.55616916,323.625
     14.01366178,50.55646904,324.024
     14.01376799,50.55676968,324.259
     14.01387109,50.55706707,324.862
     14.01398392,50.55736373,325.487
     14.01408576,50.55766273,326.385
     14.01418708,50.55796282,326.759
     14.01429147,50.55826266,327.337
     14.01440751,50.55856248,327.717
     14.01452006,50.55886174,328.260
     14.01464271,50.55916031,328.873
     14.01477181,50.55945953,329.487
     14.01490316,50.55975616,330.121
     14.01505669,50.56005564,330.649
     14.01521873,50.56034784,331.363
     14.01538917,50.56064006,331.906
     14.01557123,50.56093298,332.399
     14.01574724,50.56122360,333.075
     14.01593014,50.56151509,333.752
     14.01611026,50.56180490,334.228
     14.01628569,50.56210062,334.587
     14.01647325,50.56239054,334.932
     14.01665926,50.56268215,335.380
     14.01684451,50.56297215,335.806
     14.01702893,50.56326482,336.332
     14.01721457,50.56355568,336.689
     14.01739949,50.56384609,337.147
     14.01758307,50.56413510,337.048
     14.01776913,50.56442608,337.526
     14.01795460,50.56472057,337.797
     14.01814311,50.56501063,338.219
     14.01833061,50.56530304,338.649
     14.01851057,50.56559589,338.973
     14.01869199,50.56588670,339.327
     14.01887626,50.56618145,339.841
     14.01904943,50.56647608,339.935
     14.01921606,50.56677273,340.284
     14.01937890,50.56706695,340.477
     14.01953782,50.56736832,340.813
     14.01969363,50.56766908,341.417
     14.01983079,50.56797427,341.853
     14.01996123,50.56827766,341.789
     14.02007968,50.56858226,341.709
     14.02019479,50.56888900,341.481
     14.02030230,50.56919876,341.476
     14.02040320,50.56950750,341.499
     14.02049894,50.56981509,341.323
     14.02058413,50.57012595,341.176
     14.02066341,50.57043654,341.384
     14.02072670,50.57074661,341.597
     14.02077762,50.57105953,341.793
     14.02082721,50.57136922,342.012
     14.02086378,50.57168145,342.204
     14.02089227,50.57199534,342.303
     14.02090918,50.57230897,342.787
     14.02092282,50.57261893,342.807
     14.02092362,50.57293205,343.152
     14.02091506,50.57324585,343.635
     14.02088861,50.57356130,344.137
     14.02085354,50.57387489,344.318
     14.02079662,50.57418415,344.409
     14.02072704,50.57449439,344.352
     14.02063214,50.57480275,344.746
     14.02052337,50.57510737,345.088
     14.02039281,50.57540912,345.824
     14.02025272,50.57570701,346.664
     14.02009881,50.57600144,347.241
     14.01993189,50.57628378,348.291
     14.01975349,50.57655417,348.915
     14.01956697,50.57681457,349.830
     14.01937046,50.57706208,350.349
     14.01917594,50.57729649,351.100
     14.01897631,50.57752239,351.689
     14.01877478,50.57773922,352.649
     14.01857047,50.57794835,353.529
     14.01836630,50.57814356,354.116
     14.01817433,50.57831119,354.617
     14.01800134,50.57845718,355.641
     14.01783346,50.57859008,356.428
     14.01766331,50.57872624,356.872
     14.01749354,50.57885607,357.091
     14.01732482,50.57898535,357.175
     14.01432162,50.58064892,363.994
     14.01405264,50.58073483,366.104
     14.01379714,50.58082481,367.904
     14.01357170,50.58091515,367.289
     14.01334037,50.58100050,367.345
     14.01309385,50.58108605,369.407
     14.01285427,50.58117075,369.569
     14.01261359,50.58125158,370.372
     14.01237171,50.58133252,371.066
     14.01212312,50.58141628,371.909
     14.01187670,50.58149644,372.008
     14.01162852,50.58157340,372.065
     14.00336809,50.58432238,386.694
     14.00306723,50.58441806,386.525
     14.00275879,50.58451931,385.346
     14.00244278,50.58463058,383.896
     14.00212903,50.58474365,383.286
     14.00180303,50.58485223,383.126
     14.00146883,50.58496315,382.262
     14.00112909,50.58506947,381.434
     14.00077995,50.58517482,380.399
     14.00042969,50.58528363,379.676
     14.00007421,50.58539142,379.288
     13.99971076,50.58549639,378.432
     13.99935192,50.58560215,377.909
     13.99897197,50.58568617,375.899
     13.99858414,50.58578130,375.829
     13.99819261,50.58586715,374.458
     13.99780682,50.58595312,373.858
     13.99740197,50.58602949,372.833
     13.99700565,50.58610256,372.057
     13.99660088,50.58616930,371.229
     13.99619579,50.58623144,370.684
     13.99579469,50.58629144,370.070
     13.99539897,50.58634418,369.293
     13.99500089,50.58639125,368.467
     13.99460289,50.58643015,367.398
     13.99420475,50.58646744,366.337
     13.99380177,50.58650042,365.645
     13.99339169,50.58653159,364.787
     13.99298225,50.58655710,364.123
     13.99257191,50.58657442,363.283
     13.99216051,50.58658988,362.456
     13.99175085,50.58660538,361.395
     13.99133842,50.58661821,360.513
     13.99092170,50.58662899,359.679
     13.99051215,50.58664384,358.600
     13.99008407,50.58665902,357.922
     13.98965529,50.58667628,356.863
     13.98921638,50.58669599,356.095
     13.98876913,50.58672226,355.489
     13.98832278,50.58675200,354.546
     13.98787371,50.58678736,353.897
     13.98742068,50.58683179,353.302
     13.98697830,50.58688721,352.377
     13.98652861,50.58694610,351.324
     13.98609011,50.58701389,350.178
     13.98564939,50.58708867,349.249
     13.98520672,50.58717536,348.646
     13.98477299,50.58726668,347.817
     13.98434065,50.58736715,346.977
     13.98391309,50.58747170,346.469
     13.98348960,50.58758306,345.873
     13.98306624,50.58770080,345.541
     13.98265653,50.58782952,344.633
     13.98225142,50.58795959,344.012
     13.98186246,50.58809537,343.358
     13.98146884,50.58823821,342.896
     13.98109306,50.58838507,341.824
     13.98072070,50.58853803,340.839
     13.98034715,50.58869170,340.215
     13.97998196,50.58885308,339.198
     13.97961958,50.58902074,338.186
     13.97927071,50.58919788,337.256
     13.97893107,50.58938186,336.264
     13.97859608,50.58956850,335.532
     13.97826395,50.58975710,334.529
     13.97793381,50.58994930,333.611
     13.97760948,50.59014613,332.770
     13.97729573,50.59035132,331.891
     13.97698909,50.59056248,330.899
     13.97669441,50.59078002,330.048
     13.97640996,50.59100418,328.869
     13.97613600,50.59123395,327.688
     13.97587613,50.59147074,326.612
     13.97562057,50.59171353,325.425
     13.97537531,50.59196072,324.209
     13.97514194,50.59221263,322.955
     13.97492848,50.59246885,321.767
     13.97472223,50.59272726,320.483
     13.97453186,50.59299254,319.119
     13.97434757,50.59326020,317.733
     13.97417448,50.59353111,317.295
     13.97399391,50.59380148,315.945
     13.97381650,50.59407146,314.464
     13.97364813,50.59434399,313.338
     13.97347960,50.59461615,312.115
     13.97330686,50.59488861,310.675
     13.97313476,50.59515633,309.223
     13.97296086,50.59542338,307.605
     13.97278802,50.59568976,306.047
     13.97260397,50.59595504,304.612
     13.97241231,50.59621935,303.163
     13.97221910,50.59648117,301.718
     13.97201505,50.59674251,300.628
     13.97180035,50.59699774,299.055
     13.97157822,50.59725286,297.764
     13.97134842,50.59750286,296.474
     13.97110876,50.59775182,294.911
     13.97086402,50.59799696,293.590
     13.97061525,50.59823788,292.157
     13.97035044,50.59847820,290.847
     13.97007764,50.59871002,289.478
     13.96979806,50.59893813,287.755
     13.96951633,50.59916805,286.427
     13.96921873,50.59939058,284.786
     13.96891464,50.59960769,283.353
     13.96860884,50.59982449,281.929
     13.96829674,50.60003617,280.392
     13.96797515,50.60024380,278.744
     13.96764866,50.60044683,277.428
     13.96731770,50.60064759,276.163
     13.96699348,50.60084794,274.759
     13.96667043,50.60104950,272.983
     13.96633549,50.60124845,272.001
     13.96600601,50.60144995,270.426
     13.96567384,50.60165067,268.504
     13.96534795,50.60185454,267.435
     13.96502420,50.60206054,266.434
     13.96470695,50.60227476,264.659
     13.96440894,50.60249496,262.923
     13.96411250,50.60271756,261.048
     13.96383031,50.60295089,260.026
     13.96355445,50.60318906,258.120
     13.96328559,50.60342844,256.830
     13.96303537,50.60367234,255.601
     13.96278754,50.60391715,254.111
     13.96254294,50.60416716,252.747
     13.96232287,50.60442257,251.518
     13.96211804,50.60468868,250.327
     13.96191753,50.60495929,249.869
     13.96174504,50.60523085,248.377
     13.96158355,50.60550754,247.304
     13.96143834,50.60578769,246.354
     13.96131527,50.60607050,245.406
     13.96121036,50.60635380,244.437
     13.96112139,50.60664159,243.556
     13.96106198,50.60693076,242.249
     13.96101103,50.60721874,240.615
     13.96097533,50.60750492,239.715
     13.96095419,50.60778941,238.361
     13.96096168,50.60807541,236.902
     13.96099053,50.60836148,235.487
     13.96103054,50.60864291,234.272
     13.96109209,50.60892030,232.877
     13.96116460,50.60919524,231.905
     13.96125125,50.60946666,230.917
     13.96134441,50.60973604,229.918
     13.96145645,50.61000310,229.165
     13.96158261,50.61026371,228.406
     13.96172257,50.61052168,227.714
     13.96187818,50.61077493,227.163
     13.96204373,50.61102197,226.251
     13.96223174,50.61126267,225.745
     13.96243220,50.61150100,224.948
     13.96264393,50.61173456,224.150
     13.96286681,50.61196335,223.531
     13.96310324,50.61218649,222.892
     13.96335130,50.61240317,222.289
     13.96361427,50.61261533,221.517
     13.96389967,50.61281821,220.948
     13.96418720,50.61301566,220.448
     13.96448324,50.61320670,219.714
     13.96478838,50.61339350,218.883
     13.96510682,50.61357298,218.111
     13.96543840,50.61374336,217.565
     13.96577142,50.61390699,217.016
     13.96611091,50.61406511,216.660
     13.96645217,50.61422093,215.968
     13.96679762,50.61437140,215.241
     13.96713653,50.61452188,214.662
     13.96747156,50.61467289,214.055
     13.96780555,50.61482242,213.430
     13.96813798,50.61497592,212.715
     13.96846961,50.61513320,212.428
     13.96879945,50.61529609,212.098
     13.96912480,50.61546510,211.697
     13.96944328,50.61564202,211.203
     13.96975465,50.61582835,210.807
     13.97005884,50.61601753,210.515
     13.97036082,50.61621750,210.411
     13.97065364,50.61642316,210.540
     13.97094354,50.61663872,210.779
     13.97122086,50.61686291,210.965
     13.97148854,50.61709186,211.449
     13.97175185,50.61732076,211.856
     13.97201428,50.61755111,212.344
     13.97227633,50.61778126,212.971
     13.97253876,50.61800973,213.485
     13.97280469,50.61823597,214.093
     13.97307137,50.61845685,214.586
     13.97333838,50.61867545,214.979
     13.97360972,50.61889057,215.495
     13.97388387,50.61910059,216.162
     13.97416802,50.61930702,216.456
     13.97446623,50.61950840,217.206
     13.97476637,50.61970377,217.810
     13.97506923,50.61989067,218.347
     13.97537974,50.62007122,218.663
     13.97569424,50.62024746,219.467
     13.97600844,50.62041670,219.680
     13.97632898,50.62057768,220.220
     13.97665158,50.62073010,220.409
     13.97697621,50.62087845,221.009
     13.97729948,50.62101941,221.419
     13.97762889,50.62115319,221.936
     13.97796121,50.62128551,222.575
     13.97830200,50.62141187,223.032
     13.97865342,50.62153520,223.461
    </coordinates>
   </LineString>
  </Placemark>

 </Document>
</kml>
 